QIANFAN-73              
1 63159U 25046A   25354.45621196  .00000108  00000+0  14898-3 0  9995
2 63159  88.9767 319.2238 0016846  99.2233 261.0825 13.50978861 48455
QIANFAN-74              
1 63160U 25046B   25354.43959580  .00000097  00000+0  13158-3 0  9991
2 63160  88.9768 319.1142 0002024  75.3123 284.8252 13.50975654 48518
QIANFAN-75              
1 63161U 25046C   25354.42688347  .00000127  00000+0  17797-3 0  9998
2 63161  88.9769 319.3493 0017940 102.0311 258.2852 13.50980803 48389
QIANFAN-76              
1 63162U 25046D   25354.42353321  .00000145  00000+0  20509-3 0  9995
2 63162  88.9768 319.3302 0015486 102.1436 258.1451 13.50978542 48392
QIANFAN-77              
1 63163U 25046E   25354.42641653  .00000283  00000+0  19629-3 0  9998
2 63163  88.9770 317.2739 0016909  59.9033 300.3818 13.96093425 49521
QIANFAN-78              
1 63164U 25046F   25354.46441412  .00000106  00000+0  14482-3 0  9990
2 63164  88.9768 319.1899 0016816 104.3124 255.9896 13.50979178 48472
QIANFAN-79              
1 63165U 25046G   25354.41900187  .00000120  00000+0  16722-3 0  9990
2 63165  88.9771 319.3024 0016537 102.8503 257.4497 13.50980848 48417
QIANFAN-80              
1 63166U 25046H   25354.43553179  .00000118  00000+0  16360-3 0  9993
2 63166  88.9769 319.0073 0015446 106.3625 253.9225 13.50978799 48577
